$$SOE
2460721.500000000, A.D. 2025-Feb-15 00:00:00.0000, -8.729046295362066E+07, -3.708761113753508E+08, -1.380985408901086E+07,
2460728.500000000, A.D. 2025-Feb-22 00:00:00.0000, -7.710993344135617E+07, -3.733847935516310E+08, -1.298956120299564E+07,
2460735.500000000, A.D. 2025-Mar-01 00:00:00.0000, -6.686197578955439E+07, -3.755670608781574E+08, -1.215791015216061E+07,
2460742.500000000, A.D. 2025-Mar-08 00:00:00.0000, -5.655563109371930E+07, -3.774214714763274E+08, -1.131564358438855E+07,
2460749.500000000, A.D. 2025-Mar-15 00:00:00.0000, -4.619994767133700E+07, -3.789467585392216E+08, -1.046350789935669E+07,
2460756.500000000, A.D. 2025-Mar-22 00:00:00.0000, -3.580398465837116E+07, -3.801418287015450E+08, -9.602253099209726E+06,
2460763.500000000, A.D. 2025-Mar-29 00:00:00.0000, -2.537681430236330E+07, -3.810057630095730E+08, -8.732632959900975E+06,
2460770.500000000, A.D. 2025-Apr-05 00:00:00.0000, -1.492752261101688E+07, -3.815378173555440E+08, -7.855405295667917E+06,
2460777.500000000, A.D. 2025-Apr-12 00:00:00.0000, -4.465210267224856E+06, -3.817374222746481E+08, -6.971332130453020E+06,
2460784.500000000, A.D. 2025-Apr-19 00:00:00.0000, 6.001006017338757E+06, -3.816041829875093E+08, -6.081179830054611E+06,
2460791.500000000, A.D. 2025-Apr-26 00:00:00.0000, 1.646199199674494E+07, -3.811378798928778E+08, -5.185719235418290E+06,
2460798.500000000, A.D. 2025-May-03 00:00:00.0000, 2.690859436207662E+07, -3.803384694929956E+08, -4.285725804806530E+06,
2460805.500000000, A.D. 2025-May-10 00:00:00.0000, 3.733163923317344E+07, -3.792060857447262E+08, -3.381979765616387E+06,
2460812.500000000, A.D. 2025-May-17 00:00:00.0000, 4.772193072257350E+07, -3.777410418796827E+08, -2.475266281253725E+06,
2460819.500000000, A.D. 2025-May-24 00:00:00.0000, 5.807024975987248E+07, -3.759438327494095E+08, -1.566375651902914E+06,
2460826.500000000, A.D. 2025-May-31 00:00:00.0000, 6.836735360925087E+07, -3.738151373841339E+08, -6.561035605520308E+05,
2460833.500000000, A.D. 2025-Jun-07 00:00:00.0000, 7.860397569722416E+07, -3.713558205588959E+08, 2.547487721555829E+05,
2460840.500000000, A.D. 2025-Jun-14 00:00:00.0000, 8.877082340728182E+07, -3.685669340342678E+08, 1.165374687511310E+06,
2460847.500000000, A.D. 2025-Jun-21 00:00:00.0000, 9.885857508095534E+07, -3.654497207470692E+08, 2.074962064762324E+06,
2460854.500000000, A.D. 2025-Jun-28 00:00:00.0000, 1.088578793752880E+08, -3.620056201950778E+08, 2.982693032416642E+06,
2460861.500000000, A.D. 2025-Jul-05 00:00:00.0000, 1.187593554788325E+08, -3.582362728681791E+08, 3.887743732415423E+06,
2460868.500000000, A.D. 2025-Jul-12 00:00:00.0000, 1.285535930131562E+08, -3.541435245357047E+08, 4.789284182974547E+06,
2460875.500000000, A.D. 2025-Jul-19 00:00:00.0000, 1.382311518295351E+08, -3.497294309655147E+08, 5.686478177944541E+06,
2460882.500000000, A.D. 2025-Jul-26 00:00:00.0000, 1.477825619341379E+08, -3.449962631303489E+08, 6.578483200919241E+06,
2460889.500000000, A.D. 2025-Aug-02 00:00:00.0000, 1.571983236334690E+08, -3.399465128786641E+08, 7.464450351913407E+06,
2460896.500000000, A.D. 2025-Aug-09 00:00:00.0000, 1.664689079525568E+08, -3.345828990837746E+08, 8.343524285292283E+06,
2460903.500000000, A.D. 2025-Aug-16 00:00:00.0000, 1.755847574347394E+08, -3.289083743346320E+08, 9.214843148957074E+06,
2460910.500000000, A.D. 2025-Aug-23 00:00:00.0000, 1.845362876498266E+08, -3.229261321539519E+08, 1.007753850214067E+07,
2460917.500000000, A.D. 2025-Aug-30 00:00:00.0000, 1.933138897741041E+08, -3.166396140332692E+08, 1.093073524351606E+07,
2460924.500000000, A.D. 2025-Sep-06 00:00:00.0000, 2.019079328578503E+08, -3.100525152865677E+08, 1.177355176515935E+07,
2460931.500000000, A.D. 2025-Sep-13 00:00:00.0000, 2.103087641435913E+08, -3.031687922020590E+08, 1.260510028610551E+07,
2460938.500000000, A.D. 2025-Sep-20 00:00:00.0000, 2.185067107456748E+08, -2.959926721286116E+08, 1.342448693413554E+07,
2460945.500000000, A.D. 2025-Sep-27 00:00:00.0000, 2.264920837918095E+08, -2.885286633771732E+08, 1.423081173674482E+07,
2460952.500000000, A.D. 2025-Oct-04 00:00:00.0000, 2.342551830543864E+08, -2.807815643894070E+08, 1.502316875453892E+07,
2460959.500000000, A.D. 2025-Oct-11 00:00:00.0000, 2.417863017441615E+08, -2.727564731049801E+08, 1.580064631858839E+07,
2460966.500000000, A.D. 2025-Oct-18 00:00:00.0000, 2.490757317986396E+08, -2.644587967869573E+08, 1.656232732775645E+07,
2460973.500000000, A.D. 2025-Oct-25 00:00:00.0000, 2.561137698559432E+08, -2.558942622761292E+08, 1.730728959878151E+07,
2460980.500000000, A.D. 2025-Nov-01 00:00:00.0000, 2.628907240069116E+08, -2.470689266371211E+08, 1.803460627163149E+07,
2460987.500000000, A.D. 2025-Nov-08 00:00:00.0000, 2.693969214145681E+08, -2.379891882013404E+08, 1.874334626922671E+07,
2460994.500000000, A.D. 2025-Nov-15 00:00:00.0000, 2.756227170052305E+08, -2.286617980324713E+08, 1.943257479787888E+07,
2461001.500000000, A.D. 2025-Nov-22 00:00:00.0000, 2.815585036948991E+08, -2.190938715556741E+08, 2.010135387474187E+07,
2461008.500000000, A.D. 2025-Nov-29 00:00:00.0000, 2.871947240634158E+08, -2.092928991742971E+08, 2.074874299556031E+07,
2461015.500000000, A.D. 2025-Dec-06 00:00:00.0000, 2.925218812643654E+08, -1.992667559655287E+08, 2.137380014730058E+07,
2461022.500000000, A.D. 2025-Dec-13 00:00:00.0000, 2.975305496665136E+08, -1.890237137705081E+08, 2.197558285635692E+07,
2461029.500000000, A.D. 2025-Dec-20 00:00:00.0000, 3.022113887835169E+08, -1.785724545893500E+08, 2.255314904134874E+07,
2461036.500000000, A.D. 2025-Dec-27 00:00:00.0000, 3.065551594856319E+08, -1.679220826164629E+08, 2.310555798754923E+07,
2461043.500000000, A.D. 2026-Jan-03 00:00:00.0000, 3.105527411021507E+08, -1.570821354510232E+08, 2.363187153378645E+07,
2461050.500000000, A.D. 2026-Jan-10 00:00:00.0000, 3.141951495908355E+08, -1.460625950707770E+08, 2.413115541368756E+07,
2461057.500000000, A.D. 2026-Jan-17 00:00:00.0000, 3.174735570719106E+08, -1.348738985591870E+08, 2.460248073005002E+07,
2461064.500000000, A.D. 2026-Jan-24 00:00:00.0000, 3.203793128674629E+08, -1.235269484510295E+08, 2.504492556491413E+07,
2461071.500000000, A.D. 2026-Jan-31 00:00:00.0000, 3.229039661287842E+08, -1.120331225813835E+08, 2.545757673057084E+07,
2461078.500000000, A.D. 2026-Feb-07 00:00:00.0000, 3.250392901644945E+08, -1.004042833627460E+08, 2.583953165852537E+07,
2461085.500000000, A.D. 2026-Feb-14 00:00:00.0000, 3.267773087603599E+08, -8.865278635977319E+07, 2.618990040717441E+07,
2461092.500000000, A.D. 2026-Feb-21 00:00:00.0000, 3.281103249028508E+08, -7.679148741897310E+07, 2.650780780279811E+07,
2461099.500000000, A.D. 2026-Feb-28 00:00:00.0000, 3.290309508428310E+08, -6.483374701528396E+07, 2.679239591117951E+07,
2461106.500000000, A.D. 2026-Mar-07 00:00:00.0000, 3.295321374587435E+08, -5.279343357128129E+07, 2.704282687397263E+07,
2461113.500000000, A.D. 2026-Mar-14 00:00:00.0000, 3.296072056974378E+08, -4.068492787669328E+07, 2.725828566838226E+07,
2461120.500000000, A.D. 2026-Mar-21 00:00:00.0000, 3.292498818617604E+08, -2.852312549264761E+07, 2.743798286711756E+07,
2461127.500000000, A.D. 2026-Mar-28 00:00:00.0000, 3.284543347040828E+08, -1.632343588643941E+07, 2.758115767005108E+07,
2461134.500000000, A.D. 2026-Apr-04 00:00:00.0000, 3.272152136648852E+08, -4.101779027705433E+06, 2.768708118440821E+07,
2461141.500000000, A.D. 2026-Apr-11 00:00:00.0000, 3.255276884443171E+08, 8.125420440380741E+06, 2.775505989616065E+07,
2461148.500000000, A.D. 2026-Apr-18 00:00:00.0000, 3.233874899510463E+08, 2.034124170471083E+07, 2.778443931199949E+07,
2461155.500000000, A.D. 2026-Apr-25 00:00:00.0000, 3.207909525291766E+08, 3.252827923870011E+07, 2.777460776100487E+07,
2461162.500000000, A.D. 2026-May-02 00:00:00.0000, 3.177350573168369E+08, 4.466865744834725E+07, 2.772500034044315E+07,
2461169.500000000, A.D. 2026-May-09 00:00:00.0000, 3.142174766496426E+08, 5.674404870622234E+07, 2.763510297572779E+07,
2461176.500000000, A.D. 2026-May-16 00:00:00.0000, 3.102366196359866E+08, 6.873569516800182E+07, 2.750445655397673E+07,
2461183.500000000, A.D. 2026-May-23 00:00:00.0000, 3.057916786567280E+08, 8.062443564045967E+07, 2.733266118754906E+07,
2461190.500000000, A.D. 2026-May-30 00:00:00.0000, 3.008826743725330E+08, 9.239073806058043E+07, 2.711938080027493E+07,
2461197.500000000, A.D. 2026-Jun-06 00:00:00.0000, 2.955104985558342E+08, 1.040147345272637E+08, 2.686434777231562E+07,
2461204.500000000, A.D. 2026-Jun-13 00:00:00.0000, 2.896769579955906E+08, 1.154762592615135E+08, 2.656736729014085E+07,
2461211.500000000, A.D. 2026-Jun-20 00:00:00.0000, 2.833848185037358E+08, 1.267548925676663E+08, 2.622832164792465E+07,
2461218.500000000, A.D. 2026-Jun-27 00:00:00.0000, 2.766378468190209E+08, 1.378300105630798E+08, 2.584717458700725E+07,
2461225.500000000, A.D. 2026-Jul-04 00:00:00.0000, 2.694408498674985E+08, 1.486808399572420E+08, 2.542397556509263E+07,
2461232.500000000, A.D. 2026-Jul-11 00:00:00.0000, 2.617997110595883E+08, 1.592865177451050E+08, 2.495886387220981E+07,
2461239.500000000, A.D. 2026-Jul-18 00:00:00.0000, 2.537214231146851E+08, 1.696261557707488E+08, 2.445207253468549E+07,
2461246.500000000, A.D. 2026-Jul-25 00:00:00.0000, 2.452141168156714E+08, 1.796789100209987E+08, 2.390393194987228E+07,
2461253.500000000, A.D. 2026-Aug-01 00:00:00.0000, 2.362870851080555E+08, 1.894240543781533E+08, 2.331487318586662E+07,
2461260.500000000, A.D. 2026-Aug-08 00:00:00.0000, 2.269508021255038E+08, 1.988410584888646E+08, 2.268543086492310E+07,
2461267.500000000, A.D. 2026-Aug-15 00:00:00.0000, 2.172169369379792E+08, 2.079096698016780E+08, 2.201624556981419E+07,
2461274.500000000, A.D. 2026-Aug-22 00:00:00.0000, 2.070983606615874E+08, 2.166100004945836E+08, 2.130806588144179E+07,
2461281.500000000, A.D. 2026-Aug-29 00:00:00.0000, 1.966091440649924E+08, 2.249226173313740E+08, 2.056175008679754E+07,
2461288.500000000, A.D. 2026-Sep-05 00:00:00.0000, 1.857645473012007E+08, 2.328286309180383E+08, 1.977826707580197E+07,
$$EOE